{
  "norad_id": 57532,
  "name": "STARLINK-30251",
  "history": [
    {
      "epoch": "2026-03-28T18:41:54.128544Z",
      "apogee_km": 483.76063184925624,
      "perigee_km": 482.2978312086934,
      "latitude_deg": -3.892175472792556e-05,
      "longitude_deg": 146.88267228776184,
      "height_km": 482.8307070990976,
      "semi_major_axis_km": 6861.166231528974,
      "eccentricity": 0.0001066,
      "inclination_deg": 43.0031,
      "raan_deg": 253.5529,
      "arg_perigee_deg": 268.0637,
      "mean_anomaly_deg": 92.0092,
      "mean_motion_rev_day": 15.27586634
    },
    {
      "epoch": "2026-03-29T04:06:50.916096Z",
      "apogee_km": 483.7500024422752,
      "perigee_km": 482.35306445686456,
      "latitude_deg": -4.083999245925681e-06,
      "longitude_deg": 3.044602526441765,
      "height_km": 482.80366256040685,
      "semi_major_axis_km": 6861.18853344957,
      "eccentricity": 0.0001018,
      "inclination_deg": 43.0032,
      "raan_deg": 251.3381,
      "arg_perigee_deg": 272.0189,
      "mean_anomaly_deg": 88.0546,
      "mean_motion_rev_day": 15.27579186
    }
  ]
}